NORAD_CAT_ID,OBJECT_NAME,OBJECT_TYPE,EPOCH,MEAN_MOTION,ECCENTRICITY,INCLINATION,RA_OF_ASC_NODE,ARG_OF_PERICENTER,MEAN_ANOMALY,BSTAR,MEAN_MOTION_DOT,MEAN_MOTION_DDOT,TLE_LINE0,TLE_LINE1,TLE_LINE2,SEMIMAJOR_AXIS,PERIOD,APOGEE,PERIGEE,DECAYED
54780.0,STARLINK-5449,PAYLOAD,2023-06-07 07:44:52,15.08832538,7.28e-05,53.2168,226.7806,86.4222,273.6853,6.3307e-05,7.2e-06,0.0,0 STARLINK-5449,1 54780U 22175Y   23158.32282655  .00000720  00000-0  63307-4 0  9995,2 54780  53.2168 226.7806 0000728  86.4222 273.6853 15.08832538 26042,6917.903,95.438,540.272,539.265,0.0
54780.0,STARLINK-5449,PAYLOAD,2023-06-07 14:06:24,15.08840173,7.71e-05,53.2165,225.5929,79.8207,280.2872,4.5304e-05,4.33e-06,0.0,0 STARLINK-5449,1 54780U 22175Y   23158.58778250  .00000433  00000-0  45304-4 0  9992,2 54780  53.2165 225.5929 0000771  79.8207 280.2872 15.08840173 26082,6917.88,95.438,540.278,539.211,0.0
54780.0,STARLINK-5449,PAYLOAD,2023-06-08 10:46:25,15.08839987,8.88e-05,53.2164,221.7268,76.7699,283.3392,-3.3792e-05,-8.25e-06,0.0,0 STARLINK-5449,1 54780U 22175Y   23159.44890595 -.00000825  00000-0 -33792-4 0  9990,2 54780  53.2164 221.7268 0000888  76.7699 283.3392 15.08839987 28371,6917.88,95.438,540.36,539.131,0.0
54780.0,STARLINK-5449,PAYLOAD,2023-06-09 10:37:12,15.08833937,8.39e-05,53.2156,217.2652,81.2077,278.901,8.7364e-05,1.103e-05,0.0,0 STARLINK-5449,1 54780U 22175Y   23160.44250582  .00001103  00000-0  87364-4 0  9990,2 54780  53.2156 217.2652 0000839  81.2077 278.9010 15.08833937 26369,6917.899,95.438,540.344,539.184,0.0
54780.0,STARLINK-5449,PAYLOAD,2023-06-09 13:47:58,15.08840964,8.51e-05,53.2156,216.6705,73.9312,286.1773,1.7348e-05,-1.2e-07,0.0,0 STARLINK-5449,1 54780U 22175Y   23160.57498328 -.00000012  00000-0  17348-4 0  9990,2 54780  53.2156 216.6705 0000851  73.9312 286.1773 15.08840964 28542,6917.877,95.437,540.331,539.154,0.0
54780.0,STARLINK-5449,PAYLOAD,2023-06-10 10:27:59,15.08835363,8.77e-05,53.2156,212.8043,73.002,287.1069,2.7721e-05,1.53e-06,0.0,0 STARLINK-5449,1 54780U 22175Y   23161.43610809  .00000153  00000-0  27721-4 0  9997,2 54780  53.2156 212.8043 0000877  73.0020 287.1069 15.08835363 28670,6917.895,95.438,540.366,539.153,0.0
54780.0,STARLINK-5449,PAYLOAD,2023-06-10 20:00:18,15.08836114,7.59e-05,53.216,211.0215,72.3915,287.7159,1.1754e-05,-1.01e-06,0.0,0 STARLINK-5449,1 54780U 22175Y   23161.83354902 -.00000101  00000-0  11754-4 0  9993,2 54780  53.2160 211.0215 0000759  72.3915 287.7159 15.08836114 28739,6917.892,95.438,540.282,539.232,0.0
54780.0,STARLINK-5449,PAYLOAD,2023-06-11 02:21:51,15.0883775,7.73e-05,53.2162,209.8324,75.9955,284.1124,-9.9066e-06,-4.45e-06,0.0,0 STARLINK-5449,1 54780U 22175Y   23162.09850978 -.00000445  00000-0 -99066-5 0  9991,2 54780  53.2162 209.8324 0000773  75.9955 284.1124 15.08837750 26611,6917.887,95.438,540.287,539.218,0.0
54780.0,STARLINK-5449,PAYLOAD,2023-06-11 10:18:46,15.08837426,7.82e-05,53.2162,208.3455,75.6492,284.4587,-9.5341e-06,-4.39e-06,0.0,0 STARLINK-5449,1 54780U 22175Y   23162.42971045 -.00000439  00000-0 -95341-5 0  9992,2 54780  53.2162 208.3455 0000782  75.6492 284.4587 15.08837426 28824,6917.888,95.438,540.294,539.212,0.0
54780.0,STARLINK-5449,PAYLOAD,2023-06-11 19:51:05,15.08839427,8.11e-05,53.2161,206.5612,75.0916,285.0166,2.8701e-07,-2.83e-06,0.0,0 STARLINK-5449,1 54780U 22175Y   23162.82714925 -.00000283  00000-0  28701-6 0  9991,2 54780  53.2161 206.5612 0000811  75.0916 285.0166 15.08839427 28885,6917.882,95.438,540.308,539.186,0.0
54780.0,STARLINK-5449,PAYLOAD,2023-06-12 11:44:56,15.08840847,7.77e-05,53.2159,203.5875,75.7841,284.3237,3.933e-05,3.38e-06,0.0,0 STARLINK-5449,1 54780U 22175Y   23163.48954762  .00000338  00000-0  39330-4 0  9997,2 54780  53.2159 203.5875 0000777  75.7841 284.3237 15.08840847 28985,6917.878,95.438,540.28,539.205,0.0
54780.0,STARLINK-5449,PAYLOAD,2023-06-12 19:41:52,15.08837616,7.82e-05,53.216,202.1008,79.4788,280.6292,2.97e-05,1.85e-06,0.0,0 STARLINK-5449,1 54780U 22175Y   23163.82075044  .00000185  00000-0  29700-4 0  9992,2 54780  53.2160 202.1008 0000782  79.4788 280.6292 15.08837616 26873,6917.888,95.438,540.294,539.212,0.0
54780.0,STARLINK-5449,PAYLOAD,2023-06-13 19:32:40,15.08835824,7.99e-05,53.2161,197.6403,78.7145,281.3937,4.5142e-07,-2.8e-06,0.0,0 STARLINK-5449,1 54780U 22175Y   23164.81435430 -.00000280  00000-0  45142-6 0  9998,2 54780  53.2161 197.6403 0000799  78.7145 281.3937 15.08835824 29188,6917.893,95.438,540.311,539.205,0.0
54780.0,STARLINK-5449,PAYLOAD,2023-06-14 01:54:12,15.0884007,8.76e-05,53.2164,196.4502,78.4946,281.6144,2.0833e-05,4.4e-07,0.0,0 STARLINK-5449,1 54780U 22175Y   23165.07931154  .00000044  00000-0  20833-4 0  9996,2 54780  53.2164 196.4502 0000876  78.4946 281.6144 15.08840070 27067,6917.88,95.438,540.351,539.139,0.0
54780.0,STARLINK-5449,PAYLOAD,2023-06-14 11:26:31,15.08842161,8.72e-05,53.2162,194.6661,78.0386,282.0704,2.3609e-05,8.8e-07,0.0,0 STARLINK-5449,1 54780U 22175Y   23165.47674981  .00000088  00000-0  23609-4 0  9994,2 54780  53.2162 194.6661 0000872  78.0386 282.0704 15.08842161 29287,6917.874,95.437,540.342,539.136,0.0
54780.0,STARLINK-5449,PAYLOAD,2023-06-14 19:23:27,15.08838853,8.78e-05,53.2163,193.1792,76.7944,283.3146,2.1467e-05,5.4e-07,0.0,0 STARLINK-5449,1 54780U 22175Y   23165.80795163  .00000054  00000-0  21467-4 0  9990,2 54780  53.2163 193.1792 0000878  76.7944 283.3146 15.08838853 29331,6917.884,95.438,540.356,539.142,0.0
54780.0,STARLINK-5449,PAYLOAD,2023-06-15 08:06:32,15.08838007,8.37e-05,53.2159,190.7999,78.7236,281.385,3.0561e-05,1.99e-06,0.0,0 STARLINK-5449,1 54780U 22175Y   23166.33787216  .00000199  00000-0  30561-4 0  9994,2 54780  53.2159 190.7999 0000837  78.7236 281.3850 15.08838007 27259,6917.886,95.438,540.331,539.172,0.0
54780.0,STARLINK-5449,PAYLOAD,2023-06-16 07:57:18,15.0884219,8.42e-05,53.2158,186.339,79.2755,280.8332,2.5424e-05,1.17e-06,0.0,0 STARLINK-5449,1 54780U 22175Y   23167.33146930  .00000117  00000-0  25424-4 0  9999,2 54780  53.2158 186.3390 0000842  79.2755 280.8332 15.08842190 29565,6917.874,95.437,540.321,539.156,0.0
54780.0,STARLINK-5449,PAYLOAD,2023-06-17 01:26:33,15.08836545,8.46e-05,53.2158,183.0683,77.1587,282.95,-5.329e-06,-3.72e-06,0.0,0 STARLINK-5449,1 54780U 22175Y   23168.06011334 -.00000372  00000-0 -53290-5 0  9997,2 54780  53.2158 183.0683 0000846  77.1587 282.9500 15.08836545 27518,6917.891,95.438,540.341,539.171,0.0
54780.0,STARLINK-5449,PAYLOAD,2023-06-17 10:58:52,15.0883625,8.53e-05,53.2158,181.2839,77.6076,282.5012,-6.2876e-06,-3.88e-06,0.0,0 STARLINK-5449,1 54780U 22175Y   23168.45755415 -.00000388  00000-0 -62876-5 0  9992,2 54780  53.2158 181.2839 0000853  77.6076 282.5012 15.08836250 29730,6917.892,95.438,540.347,539.167,0.0
54780.0,STARLINK-5449,PAYLOAD,2023-06-18 07:38:53,15.08834537,8.53e-05,53.2158,177.4183,76.3234,283.7853,-1.7586e-05,-5.67e-06,0.0,0 STARLINK-5449,1 54780U 22175Y   23169.31867796 -.00000567  00000-0 -17586-4 0  9990,2 54780  53.2158 177.4183 0000853  76.3234 283.7853 15.08834537 27708,6917.897,95.438,540.352,539.172,0.0
54780.0,STARLINK-5449,PAYLOAD,2023-06-18 17:11:12,15.08836023,8.73e-05,53.2161,175.6346,75.1563,284.9526,-1.8006e-05,-5.74e-06,0.0,0 STARLINK-5449,1 54780U 22175Y   23169.71611813 -.00000574  00000-0 -18006-4 0  9997,2 54780  53.2161 175.6346 0000873  75.1563 284.9526 15.08836023 29925,6917.893,95.438,540.361,539.154,0.0
54780.0,STARLINK-5449,PAYLOAD,2023-06-19 09:05:03,15.08836773,8.82e-05,53.2159,172.6608,76.0125,284.0965,5.034e-05,5.13e-06,0.0,0 STARLINK-5449,1 54780U 22175Y   23170.37851707  .00000513  00000-0  50340-4 0  9997,2 54780  53.2159 172.6608 0000882  76.0125 284.0965 15.08836773 27865,6917.89,95.438,540.365,539.145,0.0
54780.0,STARLINK-5449,PAYLOAD,2023-06-19 17:01:59,15.08835237,8.9e-05,53.2161,171.1737,73.7686,286.3404,3.8471e-05,3.25e-06,0.0,0 STARLINK-5449,1 54780U 22175Y   23170.70971923  .00000325  00000-0  38471-4 0  9999,2 54780  53.2161 171.1737 0000890  73.7686 286.3404 15.08835237 30074,6917.895,95.438,540.376,539.144,0.0
54780.0,STARLINK-5449,PAYLOAD,2023-06-20 00:58:55,15.08833844,8.97e-05,53.216,169.687,75.3672,284.742,3.0221e-05,1.93e-06,0.0,0 STARLINK-5449,1 54780U 22175Y   23171.04092142  .00000193  00000-0  30221-4 0  9992,2 54780  53.2160 169.6870 0000897  75.3672 284.7420 15.08833844 30121,6917.899,95.438,540.385,539.144,0.0
54780.0,STARLINK-5449,PAYLOAD,2023-06-21 07:11:15,15.08840314,9.79e-05,53.2163,164.0368,76.539,283.5711,2.6134e-05,1.28e-06,0.0,0 STARLINK-5449,1 54780U 22175Y   23172.29947999  .00000128  00000-0  26134-4 0  9995,2 54780  53.2163 164.0368 0000979  76.5390 283.5711 15.08840314 28156,6917.879,95.438,540.422,539.067,0.0
54780.0,STARLINK-5449,PAYLOAD,2023-06-21 16:43:33,15.08839787,0.0001,53.2166,162.2531,77.7044,282.406,3.5578e-05,2.79e-06,0.0,0 STARLINK-5449,1 54780U 22175Y   23172.69691989  .00000279  00000-0  35578-4 0  9993,2 54780  53.2166 162.2531 0001000  77.7044 282.4060 15.08839787 30370,6917.881,95.438,540.438,539.054,0.0
54780.0,STARLINK-5449,PAYLOAD,2023-06-22 08:37:24,15.08842218,9.79e-05,53.2159,159.2788,83.8643,276.2461,5.8927e-05,6.5e-06,0.0,0 STARLINK-5449,1 54780U 22175Y   23173.35931693  .00000650  00000-0  58927-4 0  9992,2 54780  53.2159 159.2788 0000979  83.8643 276.2461 15.08842218 28319,6917.874,95.437,540.416,539.061,0.0
54780.0,STARLINK-5449,PAYLOAD,2023-06-23 02:06:42,15.08813375,0.000109,53.216,156.0085,81.8846,278.227,-0.00019669,-3.414e-05,0.0,0 STARLINK-5449,1 54780U 22175Y   23174.08798708 -.00003414  00000-0 -19669-3 0  9993,2 54780  53.2160 156.0085 0001090  81.8846 278.2270 15.08813375 28428,6917.962,95.439,540.581,539.073,0.0
54780.0,STARLINK-5449,PAYLOAD,2023-06-24 01:57:28,15.08826965,9.86e-05,53.2163,151.5476,81.041,279.0694,-5.5695e-05,-1.174e-05,0.0,0 STARLINK-5449,1 54780U 22175Y   23175.08158381 -.00001174  00000-0 -55695-4 0  9992,2 54780  53.2163 151.5476 0000986  81.0410 279.0694 15.08826965 28571,6917.92,95.438,540.467,539.103,0.0
